{
  "type": "FeatureCollection",
  "features": [
    {
      "type": "Feature",
      "properties": {
        "norad_id": 41772,
        "name": "SKYSAT-C5",
        "group": "resource",
        "lat": -11.83585372014491,
        "lon": -159.7201627580939,
        "alt_km": 463.2528994714012,
        "timestamp": "2025-12-03T15:48:02.759060+00:00",
        "meta_object_name": "SKYSAT-C5",
        "meta_object_id": "2016-058C",
        "meta_epoch": "2025-12-03T02:27:18.996480",
        "meta_mean_motion": 15.35381437,
        "meta_eccentricity": 0.00026906,
        "meta_inclination": 97.0777,
        "meta_ra_of_asc_node": 21.2377,
        "meta_arg_of_pericenter": 130.7295,
        "meta_mean_anomaly": 229.4184,
        "meta_ephemeris_type": 0,
        "meta_classification_type": "U",
        "meta_norad_cat_id": 41772,
        "meta_element_set_no": 999,
        "meta_rev_at_epoch": 51368,
        "meta_bstar": 0.0018731044,
        "meta_mean_motion_dot": 0.00064768,
        "meta_mean_motion_ddot": 0,
        "tle_line1": "1 41772U 16058C   25337.10230320  .00064768  00000+0  18731-2 0  9994",
        "tle_line2": "2 41772  97.0777  21.2377 0002690 130.7295 229.4184 15.35381437513689"
      },
      "geometry": {
        "type": "Point",
        "coordinates": [
          -159.7201627580939,
          -11.83585372014491
        ]
      }
    },
    {
      "type": "Feature",
      "properties": {
        "norad_id": 41773,
        "name": "SKYSAT-C2",
        "group": "resource",
        "lat": 35.61081258362614,
        "lon": -172.35162733179124,
        "alt_km": 452.6636961728209,
        "timestamp": "2025-12-03T15:48:02.759069+00:00",
        "meta_object_name": "SKYSAT-C2",
        "meta_object_id": "2016-058D",
        "meta_epoch": "2025-12-03T01:06:49.369536",
        "meta_mean_motion": 15.36929314,
        "meta_eccentricity": 0.00051007,
        "meta_inclination": 97.0371,
        "meta_ra_of_asc_node": 1.9867,
        "meta_arg_of_pericenter": 58.7522,
        "meta_mean_anomaly": 301.4222,
        "meta_ephemeris_type": 0,
        "meta_classification_type": "U",
        "meta_norad_cat_id": 41773,
        "meta_element_set_no": 999,
        "meta_rev_at_epoch": 51487,
        "meta_bstar": 0.00040683044,
        "meta_mean_motion_dot": 0.00014631,
        "meta_mean_motion_ddot": 0,
        "tle_line1": "1 41773U 16058D   25337.04640474  .00014631  00000+0  40683-3 0  9999",
        "tle_line2": "2 41773  97.0371   1.9867 0005100  58.7522 301.4222 15.36929314514879"
      },
      "geometry": {
        "type": "Point",
        "coordinates": [
          -172.35162733179124,
          35.61081258362614
        ]
      }
    },
    {
      "type": "Feature",
      "properties": {
        "norad_id": 41774,
        "name": "SKYSAT-C3",
        "group": "resource",
        "lat": 75.53533170089906,
        "lon": -140.03032196461382,
        "alt_km": 426.5276311715188,
        "timestamp": "2025-12-03T15:48:02.759079+00:00",
        "meta_object_name": "SKYSAT-C3",
        "meta_object_id": "2016-058E",
        "meta_epoch": "2025-12-03T01:21:27.925344",
        "meta_mean_motion": 15.438754,
        "meta_eccentricity": 0.00013715,
        "meta_inclination": 96.9314,
        "meta_ra_of_asc_node": 11.2574,
        "meta_arg_of_pericenter": 99.3363,
        "meta_mean_anomaly": 260.8041,
        "meta_ephemeris_type": 0,
        "meta_classification_type": "U",
        "meta_norad_cat_id": 41774,
        "meta_element_set_no": 999,
        "meta_rev_at_epoch": 51576,
        "meta_bstar": 0.0005576321,
        "meta_mean_motion_dot": 0.00025275,
        "meta_mean_motion_ddot": 0,
        "tle_line1": "1 41774U 16058E   25337.05657321  .00025275  00000+0  55763-3 0  9991",
        "tle_line2": "2 41774  96.9314  11.2574 0001371  99.3363 260.8041 15.43875400515764"
      },
      "geometry": {
        "type": "Point",
        "coordinates": [
          -140.03032196461382,
          75.53533170089906
        ]
      }
    },
    {
      "type": "Feature",
      "properties": {
        "norad_id": 41785,
        "name": "ALSAT 1B",
        "group": "resource",
        "lat": 25.707311892901842,
        "lon": 173.61480050444294,
        "alt_km": 647.0362360492582,
        "timestamp": "2025-12-03T15:48:02.759088+00:00",
        "meta_object_name": "ALSAT 1B",
        "meta_object_id": "2016-059C",
        "meta_epoch": "2025-12-03T08:34:44.274432",
        "meta_mean_motion": 14.72059434,
        "meta_eccentricity": 0.00103779,
        "meta_inclination": 97.7819,
        "meta_ra_of_asc_node": 349.552,
        "meta_arg_of_pericenter": 130.4189,
        "meta_mean_anomaly": 229.7926,
        "meta_ephemeris_type": 0,
        "meta_classification_type": "U",
        "meta_norad_cat_id": 41785,
        "meta_element_set_no": 999,
        "meta_rev_at_epoch": 49176,
        "meta_bstar": 0.00012100786,
        "meta_mean_motion_dot": 7.14e-06,
        "meta_mean_motion_ddot": 0,
        "tle_line1": "1 41785U 16059C   25337.35745688  .00000714  00000+0  12101-3 0  9991",
        "tle_line2": "2 41785  97.7819 349.5520 0010377 130.4189 229.7926 14.72059434491763"
      },
      "geometry": {
        "type": "Point",
        "coordinates": [
          173.61480050444294,
          25.707311892901842
        ]
      }
    },
    {
      "type": "Feature",
      "properties": {
        "norad_id": 41787,
        "name": "PATHFINDER 1",
        "group": "resource",
        "lat": 27.110930888300988,
        "lon": -23.177919182943782,
        "alt_km": 665.3790518613314,
        "timestamp": "2025-12-03T15:48:02.759097+00:00",
        "meta_object_name": "PATHFINDER 1",
        "meta_object_id": "2016-059E",
        "meta_epoch": "2025-12-03T05:51:22.923648",
        "meta_mean_motion": 14.6729428,
        "meta_eccentricity": 0.00299578,
        "meta_inclination": 97.8139,
        "meta_ra_of_asc_node": 340.4584,
        "meta_arg_of_pericenter": 110.0245,
        "meta_mean_anomaly": 250.419,
        "meta_ephemeris_type": 0,
        "meta_classification_type": "U",
        "meta_norad_cat_id": 41787,
        "meta_element_set_no": 999,
        "meta_rev_at_epoch": 49097,
        "meta_bstar": 0.00021981042,
        "meta_mean_motion_dot": 1.202e-05,
        "meta_mean_motion_ddot": 0,
        "tle_line1": "1 41787U 16059E   25337.24401532  .00001202  00000+0  21981-3 0  9997",
        "tle_line2": "2 41787  97.8139 340.4584 0029957 110.0245 250.4190 14.67294280490972"
      },
      "geometry": {
        "type": "Point",
        "coordinates": [
          -23.177919182943782,
          27.110930888300988
        ]
      }
    },
    {
      "type": "Feature",
      "properties": {
        "norad_id": 41790,
        "name": "SCATSAT 1",
        "group": "resource",
        "lat": 0.9399890903053798,
        "lon": 34.08067654402601,
        "alt_km": 671.3667385751314,
        "timestamp": "2025-12-03T15:48:02.759106+00:00",
        "meta_object_name": "SCATSAT 1",
        "meta_object_id": "2016-059H",
        "meta_epoch": "2025-12-03T02:48:20.619648",
        "meta_mean_motion": 14.78880649,
        "meta_eccentricity": 0.00557828,
        "meta_inclination": 98.148,
        "meta_ra_of_asc_node": 33.6671,
        "meta_arg_of_pericenter": 158.5584,
        "meta_mean_anomaly": 201.7981,
        "meta_ephemeris_type": 0,
        "meta_classification_type": "U",
        "meta_norad_cat_id": 41790,
        "meta_element_set_no": 999,
        "meta_rev_at_epoch": 7260,
        "meta_bstar": 0.00033695932,
        "meta_mean_motion_dot": 2.491e-05,
        "meta_mean_motion_ddot": 0,
        "tle_line1": "1 41790U 16059H   25337.11690532  .00002491  00000+0  33696-3 0  9994",
        "tle_line2": "2 41790  98.1480  33.6671 0055782 158.5584 201.7981 14.78880649 72600"
      },
      "geometry": {
        "type": "Point",
        "coordinates": [
          34.08067654402601,
          0.9399890903053798
        ]
      }
    },
    {
      "type": "Feature",
      "properties": {
        "norad_id": 41875,
        "name": "GOKTURK 1A",
        "group": "resource",
        "lat": -71.21253114030553,
        "lon": 25.253130123453488,
        "alt_km": 692.4227385796512,
        "timestamp": "2025-12-03T15:48:02.759115+00:00",
        "meta_object_name": "GOKTURK 1A",
        "meta_object_id": "2016-073A",
        "meta_epoch": "2025-12-03T08:04:51.250656",
        "meta_mean_motion": 14.62761321,
        "meta_eccentricity": 0.00012389,
        "meta_inclination": 98.1431,
        "meta_ra_of_asc_node": 229.8273,
        "meta_arg_of_pericenter": 81.9133,
        "meta_mean_anomaly": 278.2209,
        "meta_ephemeris_type": 0,
        "meta_classification_type": "U",
        "meta_norad_cat_id": 41875,
        "meta_element_set_no": 999,
        "meta_rev_at_epoch": 48019,
        "meta_bstar": 0.00017454614,
        "meta_mean_motion_dot": 8.43e-06,
        "meta_mean_motion_ddot": 0,
        "tle_line1": "1 41875U 16073A   25337.33670429  .00000843  00000+0  17455-3 0  9995",
        "tle_line2": "2 41875  98.1431 229.8273 0001238  81.9133 278.2209 14.62761321480190"
      },
      "geometry": {
        "type": "Point",
        "coordinates": [
          25.253130123453488,
          -71.21253114030553
        ]
      }
    }
  ]
}